E-ST@R-II               
1 41459U 16025D   22221.56129139  .00009186  00000+0  38714-3 0  9991
2 41459  98.1909  30.7012 0143762  89.1432 272.6352 15.14581835345532
AAUSAT 4                
1 41460U 16025E   22221.45882762  .00014129  00000+0  51801-3 0  9994
2 41460  98.1860  37.2957 0122848  63.6817 297.7338 15.21197918345991
BEESAT-4                
1 41619U 16040W   22221.09577316  .00014151  00000+0  45511-3 0  9999
2 41619  97.2135 270.3513 0007264 289.9355  70.1104 15.32326550328784
RAVAN                   
1 41849U 16067B   22221.38074445  .00002970  00000+0  23726-3 0  9990
2 41849  98.0061 359.9208 0015106 156.0031 204.1899 15.00989749313931
CELTEE 1                
1 41850U 16067C   22221.33058081  .00002217  00000+0  18980-3 0  9995
2 41850  98.0059 354.7057 0009354 147.3510 212.8291 14.98641967313674
OPTICUBE 04             
1 41851U 16067D   22221.33599795  .00000788  00000+0  72190-4 0  9993
2 41851  98.0040 353.6971 0009009 153.8050 206.3629 14.97903136313622
AEROCUBE 8D             
1 41852U 16067E   22221.59054774  .00002629  00000+0  22448-3 0  9991
2 41852  98.0028 354.0045 0010203 151.1376 209.0412 14.98559136313657
AEROCUBE 8C             
1 41853U 16067F   22221.30558536  .00002080  00000+0  17891-3 0  9993
2 41853  97.9999 353.5297 0010540 159.9501 200.2137 14.98515794313600
PROMETHEUS 2-1          
1 41854U 16067G   22221.16503468  .00003585  00000+0  29462-3 0  9990
2 41854  97.9978 354.5594 0013063 169.7020 190.4472 14.99773207313649
PROMETHEUS 2-3          
1 41855U 16067H   22221.35681896  .00003248  00000+0  26735-3 0  9990
2 41855  97.9993 354.8465 0011139 179.1968 180.9274 14.99802470313677
INS-1B                  
1 41954U 17008G   22221.40868394  .00012915  00000+0  41154-3 0  9995
2 41954  97.2545 280.2283 0008542  56.1202 304.0852 15.32635033304850
BGUSAT                  
1 41999U 17008BD  22221.15592642  .00035373  00000+0  78550-3 0  9999
2 41999  97.2780 291.4645 0005436  53.2321 306.9425 15.43606331304763
DIDO-2                  
1 42000U 17008BE  22221.43890926  .00007478  00000+0  26663-3 0  9993
2 42000  97.2535 279.4041 0008967  75.0917 285.1316 15.29146071304161
PEASSS                  
1 42015U 17008BV  22221.43055169  .00010973  00000+0  35051-3 0  9996
2 42015  97.2603 283.5083 0006722  73.3435 286.8545 15.32612799304888
AL-FARABI 1             
1 42016U 17008BW  22221.41016542  .00016723  00000+0  48016-3 0  9991
2 42016  97.2669 286.7805 0005841  70.3891 289.7984 15.35898813305170
NAYIF-1 (EO-88)         
1 42017U 17008BX  22220.89903473  .00016739  00000+0  47853-3 0  9996
2 42017  97.2663 286.2937 0006054  69.8496 290.3399 15.36035162305121
UCLSAT                  
1 42765U 17036A   22221.09287751  .00012067  00000+0  40725-3 0  9995
2 42765  97.1944 262.1342 0010717 130.3751 229.8428 15.30778333285905
LITUANICASAT-2          
1 42768U 17036D   22221.40646941  .00027264  00000+0  73202-3 0  9994
2 42768  97.2025 265.6914 0011931 115.3354 244.9128 15.37835657285380
AALTO-1                 
1 42775U 17036L   22221.55012786  .00006542  00000+0  25492-3 0  9996
2 42775  97.1946 257.3203 0013838 133.2627 226.9769 15.26201545284873
URSA MAIOR              
1 42776U 17036M   22221.37950485  .00008238  00000+0  31437-3 0  9994
2 42776  97.1962 257.9389 0013503 132.5864 227.6517 15.26822741284884
COMPASS 2               
1 42777U 17036N   22221.35357867  .00019288  00000+0  58543-3 0  9992
2 42777  97.2012 264.7397 0011185 119.0605 241.1760 15.34071354285252
DIAMOND RED             
1 42783U 17036U   22221.37058949  .00008718  00000+0  31924-3 0  9990
2 42783  97.1966 260.3614 0011776 135.6803 224.5382 15.28188722285021
PEGASUS                 
1 42784U 17036V   22221.37405436  .00011523  00000+0  40062-3 0  9999
2 42784  97.1960 261.6141 0011489 132.8299 227.3910 15.29817162285109
DIAMOND GREEN           
1 42785U 17036W   22221.37044996  .00009532  00000+0  34929-3 0  9992
2 42785  97.1969 260.4249 0011604 136.7892 223.4260 15.28142453285092
DIAMOND BLUE            
1 42786U 17036X   22221.36949619  .00009151  00000+0  33536-3 0  9998
2 42786  97.1967 260.4158 0011634 137.2502 222.9645 15.28149842285097
NUDTSAT                 
1 42787U 17036Y   22221.57523890  .00013163  00000+0  38546-3 0  9995
2 42787  97.1999 266.3274 0010253 119.3683 240.8619 15.35296442285248
SUCHAI                  
1 42788U 17036Z   22221.37057309  .00014043  00000+0  45865-3 0  9991
2 42788  97.1969 263.3926 0010868 127.8479 232.3748 15.31800630285285
SKCUBE                  
1 42789U 17036AA  22221.06819952  .00012395  00000+0  41627-3 0  9998
2 42789  97.1966 262.5030 0010915 129.7990 230.4214 15.30927731285123
VZLUSAT-1               
1 42790U 17036AB  22221.39262812  .00020208  00000+0  59304-3 0  9996
2 42790  97.1990 266.1043 0009863 120.9167 239.3047 15.35139960285367
ROBUSTA 1B              
1 42792U 17036AD  22221.07043074  .00013570  00000+0  44722-3 0  9992
2 42792  97.1964 263.1079 0010495 129.4459 230.7713 15.31521060285173
CICERO 6                
1 42793U 17036AE  22221.52579576  .00007863  00000+0  28962-3 0  9990
2 42793  97.1945 261.0394 0010319 134.1061 226.1030 15.28045640285179
CORVUS BC2              
1 42846U 17042X   22221.02902682  .00000924  00000+0  93908-4 0  9993
2 42846  97.4178  75.3520 0009458 170.9693 189.1700 14.93000802276126
CORVUS BC1              
1 42847U 17042Y   22221.03894403  .00000690  00000+0  71213-4 0  9991
2 42847  97.4180  75.6764 0009156 169.4519 190.6895 14.93102790276130
MIRATA                  
1 43015U 17073C   22221.47792396  .00008340  00000+0  59880-3 0  9994
2 43015  97.6685 114.8176 0237206   7.1557 353.2945 14.84606809255132
MAKERSAT 0              
1 43016U 17073D   22221.50432114  .00006646  00000+0  48918-3 0  9995
2 43016  97.6701 114.2976 0244693  11.7933 348.8870 14.82738398255056
AEROCUBE 7C (OCSD C)    
1 43043U 17071G   22220.92049066  .01073622  69671-3  11334-2 0  9991
2 43043  51.6205 128.8622 0005127 216.0451 144.0217 16.09766002263982
ASGARDIA 1              
1 43049U 17071N   22221.19306508  .00259717  00000+0  94180-3 0  9992
2 43049  51.6272 134.0067 0002625 125.0043 235.1208 15.87291026263942
CORVUS BC3              
1 43118U 18004H   22221.42533199  .00007567  00000+0  27969-3 0  9995
2 43118  97.3606 293.4630 0009554 165.4566 194.6950 15.27958084254300
MICROMAS-2A             
1 43131U 18004W   22221.46682316  .00022417  00000+0  59459-3 0  9990
2 43131  97.3740 300.9424 0006963 149.5292 210.6359 15.38301650254720
SPACEBEE-4              
1 43139U 18004AE  22221.22725174  .00059115  00000+0  10955-2 0  9994
2 43139  97.3832 306.4145 0005573 147.1818 212.9780 15.48778113255003
SPACEBEE-3              
1 43140U 18004AF  22221.31808627  .00150083  00000+0  15060-2 0  9999
2 43140  97.3854 311.3083 0004166 177.5514 182.5766 15.65009106255309
SPACEBEE-2              
1 43141U 18004AG  22220.92154343  .00328040  00000+0  20031-2 0  9999
2 43141  97.3843 313.0214 0004947 217.2141 142.8782 15.76453842255363
CICERO 7                
1 43143U 18004AJ  22221.16066324  .00016297  00000+0  48311-3 0  9999
2 43143  97.3722 299.9146 0006256 156.9475 203.2050 15.34900208254659
GOMX-4B                 
1 43196U 18015E   22221.28758274  .00005694  00000+0  21343-3 0  9999
2 43196  97.5396   1.1990 0015884 227.4414 132.5484 15.27555793251222
GOMX-4A                 
1 43197U 18015F   22221.46507220  .00004786  00000+0  17031-3 0  9993
2 43197  97.5385   2.3203 0015551 226.7002 203.9178 15.29359472251329
AEROCUBE 12A            
1 43556U 18046C   22221.45064664  .00019142  00000+0  46540-3 0  9994
2 43556  51.6370 285.1772 0005852 234.5812 125.4627 15.40977327227489
AEROCUBE 12B            
1 43557U 18046D   22221.46026154  .00014651  00000+0  38661-3 0  9993
2 43557  51.6387 290.4158 0006171 227.6654 132.3808 15.38681358227365
SURFSAT                 
1 43614U 18070B   22221.53665458  .00040886  00000+0  52632-3 0  9991
2 43614  93.0272 121.3470 0011908 148.6061 211.5917 15.58834410219328
CP7 (DAVE)              
1 43615U 18070C   22221.20853540  .00038818  00000+0  53202-3 0  9993
2 43615  93.0259 121.0051 0012026 153.5619 206.6261 15.57163487219237
ELFIN-B                 
1 43616U 18070D   22221.14042207  .00164358  00000+0  93248-3 0  9990
2 43616  93.0152 122.6489 0012246 132.9286 227.3019 15.78489330219633
ELFIN-A                 
1 43617U 18070E   22221.28563546  .00224606  00000+0  10040-2 0  9991
2 43617  93.0216 124.2261 0012107 128.5833 231.6532 15.83551779219727
CUBEBEL-1 (BSUSAT-1)    
1 43666U 18083E   22221.59226785  .00005668  00000+0  23646-3 0  9996
2 43666  97.4190 249.6962 0014166 140.8334 318.3707 15.23980036209575
CICERO 10               
1 43690U 18088A   22221.51112733  .00006215  00000+0  24377-3 0  9998
2 43690  85.0356 281.1023 0011333 318.1673  41.8703 15.25470502207843
IRVINE01                
1 43693U 18088D   22221.44162622  .00035666  00000+0  85990-3 0  9995
2 43693  85.0271 274.8292 0008938 259.8978 100.1266 15.41032370208372
PROXIMA I               
1 43694U 18088E   22221.41422244  .00007022  00000+0  26178-3 0  9990
2 43694  85.0289 277.7247 0014335 277.9470  82.0148 15.27142462208050
PROXIMA II              
1 43696U 18088G   22221.41517083  .00007021  00000+0  26193-3 0  9994
2 43696  85.0290 277.7446 0014383 277.9429  82.0184 15.27117432208040
FACSAT-1                
1 43721U 18096C   22221.56746500  .00013208  00000+0  35592-3 0  9993
2 43721  97.3500 301.3917 0012495 215.9454 255.8303 15.37872336206131
CENTAURI-2              
1 43722U 18096D   22221.22908354  .00027895  00000+0  65945-3 0  9996
2 43722  97.3546 303.3412 0011737 213.5454 146.5051 15.41722435206209
INNOSAT-2               
1 43738U 18096V   22221.56765801  .00069085  00000+0  10592-2 0  9992
2 43738  97.3648 311.6883 0012867 201.6804 283.5446 15.53995483206742
